{"type": "FeatureCollection", "features": [ {"type": "Feature", "properties": {"norad_id": 66486, "name": "STARLINK-34844", "group": "last-30-days", "lat": 27.76690540779092, "lon": -31.129514465893454, "alt_km": 343.88585719187904, "timestamp": "2025-12-02T21:34:00.042352+00:00", "meta": {"OBJECT_NAME": "STARLINK-34844", "OBJECT_ID": "2025-263B", "EPOCH": "2025-12-02T12:00:05.998752", "MEAN_MOTION": 15.75416355, "ECCENTRICITY": 0.0001819, "INCLINATION": 42.999, "RA_OF_ASC_NODE": 185.6925, "ARG_OF_PERICENTER": 258.153, "MEAN_ANOMALY": 136.6629, "EPHEMERIS_TYPE": 0, "CLASSIFICATION_TYPE": "U", "NORAD_CAT_ID": 66486, "ELEMENT_SET_NO": 999, "REV_AT_EPOCH": 394, "BSTAR": -0.012152, "MEAN_MOTION_DOT": -0.01680247, "MEAN_MOTION_DDOT": 0}, "tle": {"line1": "1 66486U 25263B   25336.50006943 -.01680247  00000+0 -12152-1 0  9995", "line2": "2 66486  42.9990 185.6925 0001819 258.1530 136.6629 15.75416355  3945"}}, "geometry": {"type": "Point", "coordinates": [-31.129514465893454, 27.76690540779092]}}, {"type": "Feature", "properties": {"norad_id": 66487, "name": "STARLINK-34733", "group": "last-30-days", "lat": 26.454784279346672, "lon": -29.007608831070335, "alt_km": 341.9432228653077, "timestamp": "2025-12-02T21:34:00.042362+00:00", "meta": {"OBJECT_NAME": "STARLINK-34733", "OBJECT_ID": "2025-263C", "EPOCH": "2025-12-02T06:00:02.999808", "MEAN_MOTION": 15.75133516, "ECCENTRICITY": 0.00016485, "INCLINATION": 42.999, "RA_OF_ASC_NODE": 187.205, "ARG_OF_PERICENTER": 278.9818, "MEAN_ANOMALY": 138.3175, "EPHEMERIS_TYPE": 0, "CLASSIFICATION_TYPE": "U", "NORAD_CAT_ID": 66487, "ELEMENT_SET_NO": 999, "REV_AT_EPOCH": 395, "BSTAR": -0.0017139564, "MEAN_MOTION_DOT": -0.00256972, "MEAN_MOTION_DDOT": 0}, "tle": {"line1": "1 66487U 25263C   25336.25003472 -.00256972  00000+0 -17140-2 0  9998", "line2": "2 66487  42.9990 187.2050 0001648 278.9818 138.3175 15.75133516  3953"}}, "geometry": {"type": "Point", "coordinates": [-29.007608831070335, 26.454784279346672]}}, {"type": "Feature", "properties": {"norad_id": 66488, "name": "STARLINK-35515", "group": "last-30-days", "lat": 25.560214454336784, "lon": -27.616234971652496, "alt_km": 344.44506892958, "timestamp": "2025-12-02T21:34:00.042372+00:00", "meta": {"OBJECT_NAME": "STARLINK-35515", "OBJECT_ID": "2025-263D", "EPOCH": "2025-12-02T12:00:05.998752", "MEAN_MOTION": 15.75397568, "ECCENTRICITY": 0.0001632, "INCLINATION": 42.9988, "RA_OF_ASC_NODE": 185.6831, "ARG_OF_PERICENTER": 278.4317, "MEAN_ANOMALY": 120.2188, "EPHEMERIS_TYPE": 0, "CLASSIFICATION_TYPE": "U", "NORAD_CAT_ID": 66488, "ELEMENT_SET_NO": 999, "REV_AT_EPOCH": 399, "BSTAR": -0.01186, "MEAN_MOTION_DOT": -0.01643077, "MEAN_MOTION_DDOT": 0}, "tle": {"line1": "1 66488U 25263D   25336.50006943 -.01643077  00000+0 -11860-1 0  9992", "line2": "2 66488  42.9988 185.6831 0001632 278.4317 120.2188 15.75397568  3999"}}, "geometry": {"type": "Point", "coordinates": [-27.616234971652496, 25.560214454336784]}}, {"type": "Feature", "properties": {"norad_id": 66489, "name": "STARLINK-35696", "group": "last-30-days", "lat": 24.432652282903494, "lon": -25.919388955030318, "alt_km": 344.1478921059497, "timestamp": "2025-12-02T21:34:00.042385+00:00", "meta": {"OBJECT_NAME": "STARLINK-35696", "OBJECT_ID": "2025-263E", "EPOCH": "2025-12-02T12:00:05.998752", "MEAN_MOTION": 15.75414935, "ECCENTRICITY": 0.0001684, "INCLINATION": 42.999, "RA_OF_ASC_NODE": 185.678, "ARG_OF_PERICENTER": 254.246, "MEAN_ANOMALY": 146.3165, "EPHEMERIS_TYPE": 0, "CLASSIFICATION_TYPE": "U", "NORAD_CAT_ID": 66489, "ELEMENT_SET_NO": 999, "REV_AT_EPOCH": 399, "BSTAR": -0.012095, "MEAN_MOTION_DOT": -0.01673044, "MEAN_MOTION_DDOT": 0}, "tle": {"line1": "1 66489U 25263E   25336.50006943 -.01673044  00000+0 -12095-1 0  9991", "line2": "2 66489  42.9990 185.6780 0001684 254.2460 146.3165 15.75414935  3996"}}, "geometry": {"type": "Point", "coordinates": [-25.919388955030318, 24.432652282903494]}}, {"type": "Feature", "properties": {"norad_id": 66490, "name": "STARLINK-35693", "group": "last-30-days", "lat": 23.277325792412814, "lon": -24.240297785825188, "alt_km": 344.7405943538124, "timestamp": "2025-12-02T21:34:00.042395+00:00", "meta": {"OBJECT_NAME": "STARLINK-35693", "OBJECT_ID": "2025-263F", "EPOCH": "2025-12-02T12:00:05.998752", "MEAN_MOTION": 15.75397799, "ECCENTRICITY": 0.0001633, "INCLINATION": 42.9988, "RA_OF_ASC_NODE": 185.673, "ARG_OF_PERICENTER": 278.0407, "MEAN_ANOMALY": 124.4407, "EPHEMERIS_TYPE": 0, "CLASSIFICATION_TYPE": "U", "NORAD_CAT_ID": 66490, "ELEMENT_SET_NO": 999, "REV_AT_EPOCH": 399, "BSTAR": -0.011832, "MEAN_MOTION_DOT": -0.01639605, "MEAN_MOTION_DDOT": 0}, "tle": {"line1": "1 66490U 25263F   25336.50006943 -.01639605  00000+0 -11832-1 0  9996", "line2": "2 66490  42.9988 185.6730 0001633 278.0407 124.4407 15.75397799  3993"}}, "geometry": {"type": "Point", "coordinates": [-24.240297785825188, 23.277325792412814]}}, {"type": "Feature", "properties": {"norad_id": 66491, "name": "STARLINK-35663", "group": "last-30-days", "lat": 20.92460657330728, "lon": -20.980249721306354, "alt_km": 344.925684613424, "timestamp": "2025-12-02T21:34:00.042405+00:00", "meta": {"OBJECT_NAME": "STARLINK-35663", "OBJECT_ID": "2025-263G", "EPOCH": "2025-12-02T12:00:05.998752", "MEAN_MOTION": 15.7543154, "ECCENTRICITY": 0.0001802, "INCLINATION": 42.9988, "RA_OF_ASC_NODE": 185.6633, "ARG_OF_PERICENTER": 265.7338, "MEAN_ANOMALY": 140.5783, "EPHEMERIS_TYPE": 0, "CLASSIFICATION_TYPE": "U", "NORAD_CAT_ID": 66491, "ELEMENT_SET_NO": 999, "REV_AT_EPOCH": 399, "BSTAR": -0.012294, "MEAN_MOTION_DOT": -0.01698583, "MEAN_MOTION_DDOT": 0}, "tle": {"line1": "1 66491U 25263G   25336.50006943 -.01698583  00000+0 -12294-1 0  9990", "line2": "2 66491  42.9988 185.6633 0001802 265.7338 140.5783 15.75431540  3999"}}, "geometry": {"type": "Point", "coordinates": [-20.980249721306354, 20.92460657330728]}}, {"type": "Feature", "properties": {"norad_id": 66492, "name": "STARLINK-35673", "group": "last-30-days", "lat": 19.7230234486011, "lon": -19.38681471716407, "alt_km": 345.2237768041814, "timestamp": "2025-12-02T21:34:00.042415+00:00", "meta": {"OBJECT_NAME": "STARLINK-35673", "OBJECT_ID": "2025-263H", "EPOCH": "2025-12-02T12:00:05.998752", "MEAN_MOTION": 15.75401934, "ECCENTRICITY": 0.0001689, "INCLINATION": 42.9988, "RA_OF_ASC_NODE": 185.6584, "ARG_OF_PERICENTER": 276.3582, "MEAN_ANOMALY": 131.8785, "EPHEMERIS_TYPE": 0, "CLASSIFICATION_TYPE": "U", "NORAD_CAT_ID": 66492, "ELEMENT_SET_NO": 999, "REV_AT_EPOCH": 399, "BSTAR": -0.011914, "MEAN_MOTION_DOT": -0.01650085, "MEAN_MOTION_DDOT": 0}, "tle": {"line1": "1 66492U 25263H   25336.50006943 -.01650085  00000+0 -11914-1 0  9994", "line2": "2 66492  42.9988 185.6584 0001689 276.3582 131.8785 15.75401934  3996"}}, "geometry": {"type": "Point", "coordinates": [-19.38681471716407, 19.7230234486011]}}, {"type": "Feature", "properties": {"norad_id": 66493, "name": "STARLINK-35597", "group": "last-30-days", "lat": 18.510525989251214, "lon": -17.821251894690462, "alt_km": 345.2216756493772, "timestamp": "2025-12-02T21:34:00.042425+00:00", "meta": {"OBJECT_NAME": "STARLINK-35597", "OBJECT_ID": "2025-263J", "EPOCH": "2025-12-02T12:00:05.998752", "MEAN_MOTION": 15.75396113, "ECCENTRICITY": 0.0001606, "INCLINATION": 42.9988, "RA_OF_ASC_NODE": 185.6535, "ARG_OF_PERICENTER": 269.6544, "MEAN_ANOMALY": 140.5067, "EPHEMERIS_TYPE": 0, "CLASSIFICATION_TYPE": "U", "NORAD_CAT_ID": 66493, "ELEMENT_SET_NO": 999, "REV_AT_EPOCH": 399, "BSTAR": -0.011918, "MEAN_MOTION_DOT": -0.01650148, "MEAN_MOTION_DDOT": 0}, "tle": {"line1": "1 66493U 25263J   25336.50006943 -.01650148  00000+0 -11918-1 0  9999", "line2": "2 66493  42.9988 185.6535 0001606 269.6544 140.5067 15.75396113  3997"}}, "geometry": {"type": "Point", "coordinates": [-17.821251894690462, 18.510525989251214]}}, {"type": "Feature", "properties": {"norad_id": 66494, "name": "STARLINK-35689", "group": "last-30-days", "lat": 22.109461806303738, "lon": -22.59668403418332, "alt_km": 344.81625812802304, "timestamp": "2025-12-02T21:34:00.042435+00:00", "meta": {"OBJECT_NAME": "STARLINK-35689", "OBJECT_ID": "2025-263K", "EPOCH": "2025-12-02T12:00:05.998752", "MEAN_MOTION": 15.75404317, "ECCENTRICITY": 0.0001686, "INCLINATION": 42.9988, "RA_OF_ASC_NODE": 185.6686, "ARG_OF_PERICENTER": 271.6517, "MEAN_ANOMALY": 132.748, "EPHEMERIS_TYPE": 0, "CLASSIFICATION_TYPE": "U", "NORAD_CAT_ID": 66494, "ELEMENT_SET_NO": 999, "REV_AT_EPOCH": 399, "BSTAR": -0.011938, "MEAN_MOTION_DOT": -0.01653172, "MEAN_MOTION_DDOT": 0}, "tle": {"line1": "1 66494U 25263K   25336.50006943 -.01653172  00000+0 -11938-1 0  9992", "line2": "2 66494  42.9988 185.6686 0001686 271.6517 132.7480 15.75404317  3994"}}, "geometry": {"type": "Point", "coordinates": [-22.59668403418332, 22.109461806303738]}}, {"type": "Feature", "properties": {"norad_id": 66495, "name": "STARLINK-35832", "group": "last-30-days", "lat": 17.283871293491707, "lon": -16.27610212280847, "alt_km": 345.229779484378, "timestamp": "2025-12-02T21:34:00.042445+00:00", "meta": {"OBJECT_NAME": "STARLINK-35832", "OBJECT_ID": "2025-263L", "EPOCH": "2025-12-02T12:00:05.998752", "MEAN_MOTION": 15.7540205, "ECCENTRICITY": 0.0001543, "INCLINATION": 42.9987, "RA_OF_ASC_NODE": 185.6488, "ARG_OF_PERICENTER": 265.2752, "MEAN_ANOMALY": 146.7914, "EPHEMERIS_TYPE": 0, "CLASSIFICATION_TYPE": "U", "NORAD_CAT_ID": 66495, "ELEMENT_SET_NO": 999, "REV_AT_EPOCH": 399, "BSTAR": -0.011877, "MEAN_MOTION_DOT": -0.01645439, "MEAN_MOTION_DDOT": 0}, "tle": {"line1": "1 66495U 25263L   25336.50006943 -.01645439  00000+0 -11877-1 0  9992", "line2": "2 66495  42.9987 185.6488 0001543 265.2752 146.7914 15.75402050  3995"}}, "geometry": {"type": "Point", "coordinates": [-16.27610212280847, 17.283871293491707]}}]}